From: horizons@ssd.jpl.nasa.gov (Horizons Ephemeris System)
Subject: [Horizons] SMALL BODY #C(500@10)_T(161P/Hartley-IRAS) (1/1)
Date: February 23, 2021 at 4:21:09 PM PST

Automated mail xmit by MAIL_REQUEST, PID= 22901 Tue Feb 23 16:21:09 2021
++++++++++++++++++++++++++++++++ (part 1 of 1)  +++++++++++++++++++++++++++++++
*******************************************************************************
JPL/HORIZONS                  161P/Hartley-IRAS            2021-Feb-23 16:21:08
Rec #:90001062 (+COV) Soln.date: 2014-Jun-13_19:41:43    # obs: 321 (1983-2005)

IAU76/J2000 helio. ecliptic osc. elements (au, days, deg., period=Julian yrs):

 EPOCH=  2452749.5 ! 2003-Apr-20.0000000 (TDB)    RMSW= n.a.
  EC= .8350738462769237   QR= 1.273433390358047   TP= 2453542.3646186753
  OM= 1.415670065293847   W= 47.13845022529085    IN= 95.69806814972893
  A= 7.72123378622071     MA= 323.5772227049405   ADIST= 14.16903418208337
  PER= 21.455481627177    N= .045938204           ANGMOM= .026296402
  DAN= 1.49029            DDN= 5.40988            L= 355.3089035
  B= 46.8342531           MOID= .447763           TP= 2005-Jun-20.8646186753

Comet physical (GM= km^3/s^2; RAD= km):
  GM= n.a.                RAD= n.a.
  M1=  11.4     M2=  15.      k1=  12.    k2=  5.      PHCOF=  .030

COMET comments 
1: soln ref.= JPL#59, data arc: 1983-12-29 to 2005-10-12
2: k1=12., k2=5., phase coef.=0.03;
*******************************************************************************


*******************************************************************************
Ephemeris / MAIL_REQUEST Tue Feb 23 16:21:09 2021 Pasadena, USA  / Horizons
*******************************************************************************
Target body name: 161P/Hartley-IRAS               {source: JPL#59}
Center body name: Sun (10)                        {source: DE431}
Center-site name: BODY CENTER
*******************************************************************************
Start time      : A.D. 1990-Jan-01 00:00:00.0000 TDB
Stop  time      : A.D. 2020-Dec-31 00:00:00.0000 TDB
Step-size       : 10080 minutes
*******************************************************************************
Center geodetic : 0.00000000,0.00000000,0.0000000 {E-lon(deg),Lat(deg),Alt(km)}
Center cylindric: 0.00000000,0.00000000,0.0000000 {E-lon(deg),Dxy(km),Dz(km)}
Center radii    : 696000.0 x 696000.0 x 696000.0 k{Equator, meridian, pole}    
Small perturbers: Yes                             {source: SB431-N16}
Output units    : AU-D
Output type     : GEOMETRIC cartesian states
Output format   : 6 (LT, range, and range-rate)
Reference frame : Ecliptic of J2000.0
*******************************************************************************
Initial IAU76/J2000 heliocentric ecliptic osculating elements (au, days, deg.):
 EPOCH=  2452749.5 ! 2003-Apr-20.0000000 (TDB)    RMSW= n.a.                  
  EC= .8350738462769237   QR= 1.273433390358047   TP= 2453542.3646186753      
  OM= 1.415670065293847   W= 47.13845022529085    IN= 95.69806814972893       
 Equivalent ICRF heliocentric equatorial cartesian coordinates (au, au/d):
  X=-7.580497437106684E-01  Y= 3.395738374741322E+00  Z=-6.129438236802086E+00
 VX= 4.314008168503401E-03 VY=-2.438586753509707E-03 VZ= 4.592116125916131E-03
Comet physical (GM= km^3/s^2; RAD= km):                                        
  GM= n.a.                RAD= n.a.                                           
  M1=  11.4     M2=  15.      k1=  12.    k2=  5.      PHCOF=  .030           
*******************************************************************************
           JDTDB,            Calendar Date (TDB),                     LT,                     RG,                     RR,
**************************************************************************************************************************
$$SOE
2454542.500000000, A.D. 2008-Mar-17 00:00:00.0000,  4.698826916733752E-02,  8.135766604976988E+00,  4.894286641700670E-03,
2454549.500000000, A.D. 2008-Mar-24 00:00:00.0000,  4.718568861582535E-02,  8.169948722868165E+00,  4.872057986182716E-03,
2454556.500000000, A.D. 2008-Mar-31 00:00:00.0000,  4.738221243622885E-02,  8.203975767563668E+00,  4.849979666724995E-03,
2454563.500000000, A.D. 2008-Apr-07 00:00:00.0000,  4.757784666445597E-02,  8.237848784148559E+00,  4.828049607332774E-03,
2454570.500000000, A.D. 2008-Apr-14 00:00:00.0000,  4.777259725090431E-02,  8.271568802902252E+00,  4.806265597872251E-03,
2454577.500000000, A.D. 2008-Apr-21 00:00:00.0000,  4.796647004473364E-02,  8.305136836575359E+00,  4.784624707159227E-03,
2454584.500000000, A.D. 2008-Apr-28 00:00:00.0000,  4.815947075404543E-02,  8.338553873495016E+00,  4.763123015352512E-03,
2454591.500000000, A.D. 2008-May-05 00:00:00.0000,  4.835160494257777E-02,  8.371820876992611E+00,  4.741757782783220E-03,
2454598.500000000, A.D. 2008-May-12 00:00:00.0000,  4.854287810903164E-02,  8.404938799138705E+00,  4.720528248386653E-03,
2454605.500000000, A.D. 2008-May-19 00:00:00.0000,  4.873329572198711E-02,  8.437908586788586E+00,  4.699433395878298E-03,
2454612.500000000, A.D. 2008-May-26 00:00:00.0000,  4.892286319283526E-02,  8.470731176895576E+00,  4.678471486616568E-03,
2454619.500000000, A.D. 2008-Jun-02 00:00:00.0000,  4.911158585677630E-02,  8.503407493220950E+00,  4.657640559240662E-03,
2454626.500000000, A.D. 2008-Jun-09 00:00:00.0000,  4.929946897007070E-02,  8.535938445858003E+00,  4.636938693151710E-03,
2454633.500000000, A.D. 2008-Jun-16 00:00:00.0000,  4.948651771367799E-02,  8.568324931862062E+00,  4.616364090855445E-03,
2454640.500000000, A.D. 2008-Jun-23 00:00:00.0000,  4.967273719888187E-02,  8.600567836224474E+00,  4.595915105927210E-03,
2454647.500000000, A.D. 2008-Jun-30 00:00:00.0000,  4.985813247362273E-02,  8.632668032969022E+00,  4.575590249668810E-03,
2454654.500000000, A.D. 2008-Jul-07 00:00:00.0000,  5.004270852806049E-02,  8.664626386115110E+00,  4.555388128851969E-03,
2454661.500000000, A.D. 2008-Jul-14 00:00:00.0000,  5.022647029315026E-02,  8.696443749431147E+00,  4.535307112612698E-03,
2454668.500000000, A.D. 2008-Jul-21 00:00:00.0000,  5.040942261704778E-02,  8.728120962349283E+00,  4.515344637356906E-03,
2454675.500000000, A.D. 2008-Jul-28 00:00:00.0000,  5.059157023124151E-02,  8.759658844101343E+00,  4.495497865138819E-03,
2454682.500000000, A.D. 2008-Aug-04 00:00:00.0000,  5.077291779041408E-02,  8.791058200620649E+00,  4.475766050283149E-03,
2454689.500000000, A.D. 2008-Aug-11 00:00:00.0000,  5.095346994879590E-02,  8.822319837762208E+00,  4.456149467389319E-03,
2454696.500000000, A.D. 2008-Aug-18 00:00:00.0000,  5.113323135828026E-02,  8.853444560976383E+00,  4.436647643876716E-03,
2454703.500000000, A.D. 2008-Aug-25 00:00:00.0000,  5.131220663877838E-02,  8.884433170175997E+00,  4.417259559219741E-03,
2454710.500000000, A.D. 2008-Sep-01 00:00:00.0000,  5.149040036512137E-02,  8.915286457468509E+00,  4.397984044468172E-03,
2454717.500000000, A.D. 2008-Sep-08 00:00:00.0000,  5.166781706448466E-02,  8.946005206710044E+00,  4.378819921155318E-03,
2454724.500000000, A.D. 2008-Sep-15 00:00:00.0000,  5.184446121680484E-02,  8.976590193577575E+00,  4.359766032930370E-03,
2454731.500000000, A.D. 2008-Sep-22 00:00:00.0000,  5.202033725584167E-02,  9.007042185752805E+00,  4.340821251898211E-03,
2454738.500000000, A.D. 2008-Sep-29 00:00:00.0000,  5.219544957014061E-02,  9.037361943088834E+00,  4.321984461523822E-03,
2454745.500000000, A.D. 2008-Oct-06 00:00:00.0000,  5.236980250140905E-02,  9.067550217328982E+00,  4.303254415006114E-03,
2454752.500000000, A.D. 2008-Oct-13 00:00:00.0000,  5.254340033035186E-02,  9.097607749654331E+00,  4.284629214850692E-03,
2454759.500000000, A.D. 2008-Oct-20 00:00:00.0000,  5.271624723775996E-02,  9.127535263946385E+00,  4.266105869524368E-03,
2454766.500000000, A.D. 2008-Oct-27 00:00:00.0000,  5.288834728835657E-02,  9.157333463990158E+00,  4.247682115825730E-03,
2454773.500000000, A.D. 2008-Nov-03 00:00:00.0000,  5.305970449992294E-02,  9.187003045442893E+00,  4.229357720239151E-03,
2454780.500000000, A.D. 2008-Nov-10 00:00:00.0000,  5.323032288621390E-02,  9.216544703264717E+00,  4.211132375808846E-03,
2454787.500000000, A.D. 2008-Nov-17 00:00:00.0000,  5.340020643097430E-02,  9.245959127219654E+00,  4.193004956587123E-03,
2454794.500000000, A.D. 2008-Nov-24 00:00:00.0000,  5.356935906391850E-02,  9.275246997716661E+00,  4.174973990518211E-03,
2454801.500000000, A.D. 2008-Dec-01 00:00:00.0000,  5.373778465365138E-02,  9.304408984583898E+00,  4.157037953403101E-03,
2454808.500000000, A.D. 2008-Dec-08 00:00:00.0000,  5.390548700788862E-02,  9.333445747106913E+00,  4.139195365865322E-03,
2454815.500000000, A.D. 2008-Dec-15 00:00:00.0000,  5.407246987609127E-02,  9.362357934484749E+00,  4.121444829813543E-03,
2454822.500000000, A.D. 2008-Dec-22 00:00:00.0000,  5.423873695319159E-02,  9.391146186475103E+00,  4.103785047084103E-03,
2454829.500000000, A.D. 2008-Dec-29 00:00:00.0000,  5.440429188331843E-02,  9.419811134039325E+00,  4.086214786953960E-03,
2454836.500000000, A.D. 2009-Jan-05 00:00:00.0000,  5.456913825859680E-02,  9.448353399134580E+00,  4.068732629687589E-03,
2454843.500000000, A.D. 2009-Jan-12 00:00:00.0000,  5.473327959906998E-02,  9.476773591237466E+00,  4.051336315813545E-03,
2454850.500000000, A.D. 2009-Jan-19 00:00:00.0000,  5.489671931720252E-02,  9.505072301197904E+00,  4.034023075424648E-03,
2454857.500000000, A.D. 2009-Jan-26 00:00:00.0000,  5.505946074492222E-02,  9.533250105921313E+00,  4.016792011389633E-03,
2454864.500000000, A.D. 2009-Feb-02 00:00:00.0000,  5.522150721391578E-02,  9.561307582271358E+00,  3.999643593645285E-03,
2454871.500000000, A.D. 2009-Feb-09 00:00:00.0000,  5.538286206609187E-02,  9.589245308881598E+00,  3.982577722912533E-03,
2454878.500000000, A.D. 2009-Feb-16 00:00:00.0000,  5.554352862704279E-02,  9.617063861560476E+00,  3.965593779756018E-03,
2454885.500000000, A.D. 2009-Feb-23 00:00:00.0000,  5.570351019454790E-02,  9.644763811300798E+00,  3.948691054928102E-03,
